NORAD_CAT_ID,OBJECT_NAME,OBJECT_TYPE,EPOCH,MEAN_MOTION,ECCENTRICITY,INCLINATION,RA_OF_ASC_NODE,ARG_OF_PERICENTER,MEAN_ANOMALY,BSTAR,MEAN_MOTION_DOT,MEAN_MOTION_DDOT,TLE_LINE0,TLE_LINE1,TLE_LINE2,SEMIMAJOR_AXIS,PERIOD,APOGEE,PERIGEE,DECAYED
52855.0,STARLINK-4209,PAYLOAD,2023-06-15 07:38:04,15.08836444,9.6e-05,53.2152,185.9853,71.4966,288.613,3.7114e-05,3.03e-06,0.0,0 STARLINK-4209,1 52855U 22062AB  23166.31810932  .00000303  00000-0  37114-4 0  9998,2 52855  53.2152 185.9853 0000960  71.4966 288.6130 15.08836444 55698,6917.891,95.438,540.42,539.092,0.0
52855.0,STARLINK-4209,PAYLOAD,2023-06-16 07:28:51,15.08844884,9.73e-05,53.2153,181.5248,70.6009,289.5088,7.4177e-05,8.93e-06,0.0,0 STARLINK-4209,1 52855U 22062AB  23167.31170295  .00000893  00000-0  74177-4 0  9994,2 52855  53.2153 181.5248 0000973  70.6009 289.5088 15.08844884 55848,6917.865,95.437,540.404,539.057,0.0
52855.0,STARLINK-4209,PAYLOAD,2023-06-17 00:58:05,15.08838672,0.0001009,53.2151,178.2534,72.1848,287.9254,6.0214e-05,6.71e-06,0.0,0 STARLINK-4209,1 52855U 22062AB  23168.04034618  .00000671  00000-0  60214-4 0  9994,2 52855  53.2151 178.2534 0001009  72.1848 287.9254 15.08838672 55953,6917.884,95.438,540.447,539.051,0.0
52855.0,STARLINK-4209,PAYLOAD,2023-06-17 10:30:24,15.08838655,0.0001013,53.2152,176.4692,72.2944,287.8159,4.8282e-05,4.81e-06,0.0,0 STARLINK-4209,1 52855U 22062AB  23168.43778668  .00000481  00000-0  48282-4 0  9997,2 52855  53.2152 176.4692 0001013  72.2944 287.8159 15.08838655 55529,6917.885,95.438,540.45,539.049,0.0
52855.0,STARLINK-4209,PAYLOAD,2023-06-18 07:10:25,15.08843151,0.000106,53.2154,172.6036,72.6013,287.5095,2.7457e-05,1.49e-06,0.0,0 STARLINK-4209,1 52855U 22062AB  23169.29890401  .00000149  00000-0  27457-4 0  9994,2 52855  53.2154 172.6036 0001060  72.6013 287.5095 15.08843151 56146,6917.871,95.437,540.469,539.002,0.0
52855.0,STARLINK-4209,PAYLOAD,2023-06-18 16:42:44,15.08837859,0.0001054,53.2151,170.8196,70.4147,289.6958,1.5497e-07,-2.85e-06,0.0,0 STARLINK-4209,1 52855U 22062AB  23169.69634800 -.00000285  00000-0  15497-6 0  9992,2 52855  53.2151 170.8196 0001054  70.4147 289.6958 15.08837859 55718,6917.887,95.438,540.481,539.023,0.0
52855.0,STARLINK-4209,PAYLOAD,2023-06-19 00:39:40,15.0883415,0.0001064,53.2153,169.3332,72.1039,288.0069,1.0188e-05,-1.26e-06,0.0,0 STARLINK-4209,1 52855U 22062AB  23170.02755056 -.00000126  00000-0  10188-4 0  9992,2 52855  53.2153 169.3332 0001064  72.1039 288.0069 15.08834150 56252,6917.898,95.438,540.499,539.027,0.0
52855.0,STARLINK-4209,PAYLOAD,2023-06-19 07:01:12,15.08835191,0.0001076,53.2153,168.1437,72.0708,288.0401,1.7174e-05,-1.4e-07,0.0,0 STARLINK-4209,1 52855U 22062AB  23170.29251055 -.00000014  00000-0  17174-4 0  9999,2 52855  53.2153 168.1437 0001076  72.0708 288.0401 15.08835191 55806,6917.895,95.438,540.504,539.016,0.0
52855.0,STARLINK-4209,PAYLOAD,2023-06-19 16:33:31,15.08835096,0.0001077,53.2152,166.3595,70.8208,289.2901,1.1005e-05,-1.13e-06,0.0,0 STARLINK-4209,1 52855U 22062AB  23170.68995191 -.00000113  00000-0  11005-4 0  9995,2 52855  53.2152 166.3595 0001077  70.8208 289.2901 15.08835096 55860,6917.895,95.438,540.505,539.015,0.0
52855.0,STARLINK-4209,PAYLOAD,2023-06-20 06:52:00,15.08836669,0.0001095,53.2153,163.6834,73.9137,286.1976,1.8558e-05,8e-08,0.0,0 STARLINK-4209,1 52855U 22062AB  23171.28611232  .00000008  00000-0  18558-4 0  9995,2 52855  53.2153 163.6834 0001095  73.9137 286.1976 15.08836669 56442,6917.891,95.438,540.513,538.998,0.0
52855.0,STARLINK-4209,PAYLOAD,2023-06-21 06:42:46,15.08839757,0.0001096,53.2153,159.2228,77.7071,282.4044,8.1692e-05,1.013e-05,0.0,0 STARLINK-4209,1 52855U 22062AB  23172.27971060  .00001013  00000-0  81692-4 0  9999,2 52855  53.2153 159.2228 0001096  77.7071 282.4044 15.08839757 56109,6917.881,95.438,540.504,538.988,0.0
52855.0,STARLINK-4209,PAYLOAD,2023-06-21 16:15:05,15.08837888,0.0001106,53.2153,157.4387,78.6223,281.4894,7.3693e-05,8.85e-06,0.0,0 STARLINK-4209,1 52855U 22062AB  23172.67715249  .00000885  00000-0  73693-4 0  9996,2 52855  53.2153 157.4387 0001106  78.6223 281.4894 15.08837888 56651,6917.887,95.438,540.517,538.987,0.0
52855.0,STARLINK-4209,PAYLOAD,2023-06-23 07:59:43,15.08846193,0.0001089,53.2149,150.0037,82.2517,277.8599,7.1381e-05,8.49e-06,0.0,0 STARLINK-4209,1 52855U 22062AB  23174.33314717  .00000849  00000-0  71381-4 0  9998,2 52855  53.2149 150.0037 0001089  82.2517 277.8599 15.08846193 56902,6917.861,95.437,540.48,538.973,0.0
52855.0,STARLINK-4209,PAYLOAD,2023-06-24 01:28:58,15.08836883,0.0001121,53.2152,146.7328,82.4711,277.6408,2.8039e-05,1.58e-06,0.0,0 STARLINK-4209,1 52855U 22062AB  23175.06179362  .00000158  00000-0  28039-4 0  9999,2 52855  53.2152 146.7328 0001121  82.4711 277.6408 15.08836883 57011,6917.89,95.438,540.53,538.979,0.0
52855.0,STARLINK-4209,PAYLOAD,2023-06-24 07:50:31,15.08843293,0.0001165,53.2154,145.5421,92.5802,267.5323,5.4755e-05,5.84e-06,0.0,0 STARLINK-4209,1 52855U 22062AB  23175.32674838  .00000584  00000-0  54755-4 0  9993,2 52855  53.2154 145.5421 0001165  92.5802 267.5323 15.08843293 57056,6917.87,95.437,540.541,538.929,0.0
52855.0,STARLINK-4209,PAYLOAD,2023-06-25 02:55:09,15.08836724,0.0001253,53.2155,141.9725,98.2212,261.8922,-2.0698e-05,-6.17e-06,0.0,0 STARLINK-4209,1 52855U 22062AB  23176.12163601 -.00000617  00000-0 -20698-4 0  9991,2 52855  53.2155 141.9725 0001253  98.2212 261.8922 15.08836724 57176,6917.89,95.438,540.622,538.889,0.0
52855.0,STARLINK-4209,PAYLOAD,2023-06-26 07:32:05,15.08846251,0.0001177,53.2155,136.6222,85.5552,274.5574,8.9671e-05,1.14e-05,0.0,0 STARLINK-4209,1 52855U 22062AB  23177.31394976  .00001140  00000-0  89671-4 0  9990,2 52855  53.2155 136.6222 0001177  85.5552 274.5574 15.08846251 57350,6917.861,95.437,540.541,538.912,0.0
52855.0,STARLINK-4209,PAYLOAD,2023-06-26 13:53:38,15.08836665,0.0001199,53.2159,135.4313,83.6813,276.4316,3.3268e-05,2.42e-06,0.0,0 STARLINK-4209,1 52855U 22062AB  23177.57891720  .00000242  00000-0  33268-4 0  9990,2 52855  53.2159 135.4313 0001199  83.6813 276.4316 15.08836665 57392,6917.891,95.438,540.585,538.926,0.0
52855.0,STARLINK-4209,PAYLOAD,2023-06-27 02:36:44,15.0882907,0.0001154,53.2163,133.0528,71.7689,288.3429,7.2008e-06,-1.73e-06,0.0,0 STARLINK-4209,1 52855U 22062AB  23178.10884643 -.00000173  00000-0  72008-5 0  9996,2 52855  53.2163 133.0528 0001154  71.7689 288.3429 15.08829070 57477,6917.914,95.438,540.577,538.98,0.0
52855.0,STARLINK-4209,PAYLOAD,2023-06-27 13:44:26,15.0883469,0.0001135,53.2158,130.9723,89.0137,271.0985,3.1878e-05,2.19e-06,0.0,0 STARLINK-4209,1 52855U 22062AB  23178.57252326  .00000219  00000-0  31878-4 0  9993,2 52855  53.2158 130.9723 0001135  89.0137 271.0985 15.08834690 57541,6917.897,95.438,540.547,538.976,0.0
52855.0,STARLINK-4209,PAYLOAD,2023-06-29 03:53:41,15.08839831,0.0001143,53.2164,123.8357,93.2551,266.8572,9.5525e-05,1.233e-05,0.0,0 STARLINK-4209,1 52855U 22062AB  23180.16228340  .00001233  00000-0  95525-4 0  9996,2 52855  53.2164 123.8357 0001143  93.2551 266.8572 15.08839831 57780,6917.881,95.438,540.537,538.955,0.0
52855.0,STARLINK-4209,PAYLOAD,2023-06-30 13:16:47,15.08837129,0.0001172,53.2158,117.5905,86.1855,273.9271,2.176e-05,5.8e-07,0.0,0 STARLINK-4209,1 52855U 22062AB  23181.55332648  .00000058  00000-0  21760-4 0  9991,2 52855  53.2158 117.5905 0001172  86.1855 273.9271 15.08837129 57998,6917.889,95.438,540.565,538.943,0.0
52855.0,STARLINK-4209,PAYLOAD,2023-07-02 01:50:39,15.08845416,0.000121,53.2157,110.7508,88.0579,272.0552,6.6804e-05,7.76e-06,0.0,0 STARLINK-4209,1 52855U 22062AB  23183.07684126  .00000776  00000-0  66804-4 0  9996,2 52855  53.2157 110.7508 0001210  88.0579 272.0552 15.08845416 58225,6917.864,95.437,540.566,538.892,0.0
52855.0,STARLINK-4209,PAYLOAD,2023-07-03 01:41:26,15.08840419,0.0001288,53.2163,106.2899,87.5863,272.5276,0.00014364,1.999e-05,0.0,0 STARLINK-4209,1 52855U 22062AB  23184.07044388  .00001999  00000-0  14364-3 0  9998,2 52855  53.2163 106.2899 0001288  87.5863 272.5276 15.08840419 58372,6917.879,95.438,540.635,538.853,0.0
52855.0,STARLINK-4209,PAYLOAD,2023-07-03 11:13:45,15.08837428,0.0001276,53.2168,104.5069,84.832,275.2818,5.5617e-05,5.97e-06,0.0,0 STARLINK-4209,1 52855U 22062AB  23184.46788842  .00000597  00000-0  55617-4 0  9991,2 52855  53.2168 104.5069 0001276  84.8320 275.2818 15.08837428 58437,6917.888,95.438,540.636,538.871,0.0
52855.0,STARLINK-4209,PAYLOAD,2023-07-04 04:42:58,15.08856913,0.0001135,53.2164,101.2357,91.7861,268.3261,0.00013351,1.839e-05,0.0,0 STARLINK-4209,1 52855U 22062AB  23185.19651261  .00001839  00000-0  13351-3 0  9994,2 52855  53.2164 101.2357 0001135  91.7861 268.3261 15.08856913 58545,6917.829,95.436,540.479,538.909,0.0
52855.0,STARLINK-4209,PAYLOAD,2023-07-04 17:26:04,15.08845752,0.000156,53.2159,98.8568,108.1162,252.0,4.9043e-05,4.93e-06,0.0,0 STARLINK-4209,1 52855U 22062AB  23185.72644196  .00000493  00000-0  49043-4 0  9995,2 52855  53.2159  98.8568 0001560 108.1162 252.0000 15.08845752 58622,6917.863,95.437,540.807,538.649,0.0
52855.0,STARLINK-4209,PAYLOAD,2023-07-05 01:23:00,15.0883904,0.0001072,53.2161,97.3671,78.9684,281.1428,-1.3263e-05,-4.99e-06,0.0,0 STARLINK-4209,1 52855U 22062AB  23186.05764891 -.00000499  00000-0 -13263-4 0  9990,2 52855  53.2161  97.3671 0001072  78.9684 281.1428 15.08839040 58670,6917.883,95.438,540.49,539.007,0.0
52855.0,STARLINK-4209,PAYLOAD,2023-07-06 10:46:06,15.08842237,0.0001153,53.2167,91.1245,85.7183,274.394,4.8485e-05,4.84e-06,0.0,0 STARLINK-4209,1 52855U 22062AB  23187.44868887  .00000484  00000-0  48485-4 0  9990,2 52855  53.2167  91.1245 0001153  85.7183 274.3940 15.08842237 58883,6917.874,95.437,540.536,538.941,0.0
52855.0,STARLINK-4209,PAYLOAD,2023-07-07 02:39:58,15.08833502,0.0001304,53.2173,88.152,84.3681,275.746,9.5114e-05,1.226e-05,0.0,0 STARLINK-4209,1 52855U 22062AB  23188.11109562  .00001226  00000-0  95114-4 0  9999,2 52855  53.2173  88.1520 0001304  84.3681 275.7460 15.08833502 58986,6917.9,95.438,540.667,538.863,0.0
